{"type": "FeatureCollection", "features": [ {"type": "Feature", "properties": {"norad_id": 32289, "name": "YAOGAN-3", "group": "resource", "lat": 7.536150675725934, "lon": -154.56915674520025, "alt_km": 600.204762276494, "timestamp": "2025-12-23T20:42:36.729093+00:00", "meta": {"OBJECT_NAME": "YAOGAN-3", "OBJECT_ID": "2007-055A", "EPOCH": "2025-12-23T07:02:41.753184", "MEAN_MOTION": 14.89907467, "ECCENTRICITY": 0.00011932, "INCLINATION": 97.8348, "RA_OF_ASC_NODE": 23.8229, "ARG_OF_PERICENTER": 84.4761, "MEAN_ANOMALY": 275.6593, "EPHEMERIS_TYPE": 0, "CLASSIFICATION_TYPE": "U", "NORAD_CAT_ID": 32289, "ELEMENT_SET_NO": 999, "REV_AT_EPOCH": 97966, "BSTAR": 0.00048392308, "MEAN_MOTION_DOT": 4.601e-05, "MEAN_MOTION_DDOT": 0}, "tle": {"line1": "1 32289U 07055A   25357.29353881  .00004601  00000+0  48392-3 0  9991", "line2": "2 32289  97.8348  23.8229 0001193  84.4761 275.6593 14.89907467979664"}}, "geometry": {"type": "Point", "coordinates": [-154.56915674520025, 7.536150675725934]}}, {"type": "Feature", "properties": {"norad_id": 32376, "name": "COSMO-SKYMED 2", "group": "resource", "lat": 37.26237394423096, "lon": 5.067508270289986, "alt_km": 619.4316689729476, "timestamp": "2025-12-23T20:42:36.729104+00:00", "meta": {"OBJECT_NAME": "COSMO-SKYMED 2", "OBJECT_ID": "2007-059A", "EPOCH": "2025-12-23T07:06:31.381056", "MEAN_MOTION": 14.82154959, "ECCENTRICITY": 0.00013148, "INCLINATION": 97.8805, "RA_OF_ASC_NODE": 178.461, "ARG_OF_PERICENTER": 82.6947, "MEAN_ANOMALY": 277.4415, "EPHEMERIS_TYPE": 0, "CLASSIFICATION_TYPE": "U", "NORAD_CAT_ID": 32376, "ELEMENT_SET_NO": 999, "REV_AT_EPOCH": 97594, "BSTAR": 7.159144e-05, "MEAN_MOTION_DOT": 5.18e-06, "MEAN_MOTION_DDOT": 0}, "tle": {"line1": "1 32376U 07059A   25357.29619654  .00000518  00000+0  71591-4 0  9996", "line2": "2 32376  97.8805 178.4610 0001314  82.6947 277.4415 14.82154959975944"}}, "geometry": {"type": "Point", "coordinates": [5.067508270289986, 37.26237394423096]}}, {"type": "Feature", "properties": {"norad_id": 32382, "name": "RADARSAT-2", "group": "resource", "lat": 14.089309551372587, "lon": -175.53756799783346, "alt_km": 792.6047779367445, "timestamp": "2025-12-23T20:42:36.729115+00:00", "meta": {"OBJECT_NAME": "RADARSAT-2", "OBJECT_ID": "2007-061A", "EPOCH": "2025-12-23T06:30:13.872960", "MEAN_MOTION": 14.29985581, "ECCENTRICITY": 0.00011325, "INCLINATION": 98.5791, "RA_OF_ASC_NODE": 1.7078, "ARG_OF_PERICENTER": 84.5857, "MEAN_ANOMALY": 275.5455, "EPHEMERIS_TYPE": 0, "CLASSIFICATION_TYPE": "U", "NORAD_CAT_ID": 32382, "ELEMENT_SET_NO": 999, "REV_AT_EPOCH": 94081, "BSTAR": 0.00016597604, "MEAN_MOTION_DOT": 3.84e-06, "MEAN_MOTION_DDOT": 0}, "tle": {"line1": "1 32382U 07061A   25357.27099390  .00000384  00000+0  16598-3 0  9999", "line2": "2 32382  98.5791   1.7078 0001132  84.5857 275.5455 14.29985581940813"}}, "geometry": {"type": "Point", "coordinates": [-175.53756799783346, 14.089309551372587]}}, {"type": "Feature", "properties": {"norad_id": 32783, "name": "CARTOSAT-2A", "group": "resource", "lat": 26.06255986196649, "lon": -128.8220452189055, "alt_km": 639.4715265368959, "timestamp": "2025-12-23T20:42:36.729125+00:00", "meta": {"OBJECT_NAME": "CARTOSAT-2A", "OBJECT_ID": "2008-021A", "EPOCH": "2025-12-23T13:31:21.583200", "MEAN_MOTION": 14.78951894, "ECCENTRICITY": 0.0011057, "INCLINATION": 97.7918, "RA_OF_ASC_NODE": 47.0479, "ARG_OF_PERICENTER": 328.3066, "MEAN_ANOMALY": 31.7479, "EPHEMERIS_TYPE": 0, "CLASSIFICATION_TYPE": "U", "NORAD_CAT_ID": 32783, "ELEMENT_SET_NO": 999, "REV_AT_EPOCH": 95284, "BSTAR": 0.00011216, "MEAN_MOTION_DOT": 7.78e-06, "MEAN_MOTION_DDOT": 0}, "tle": {"line1": "1 32783U 08021A   25357.56344425  .00000778  00000+0  11216-3 0  9994", "line2": "2 32783  97.7918  47.0479 0011057 328.3066  31.7479 14.78951894952844"}}, "geometry": {"type": "Point", "coordinates": [-128.8220452189055, 26.06255986196649]}}, {"type": "Feature", "properties": {"norad_id": 33320, "name": "HUANJING 1A (HJ-1A)", "group": "resource", "lat": -17.311996028479967, "lon": 163.29475358638348, "alt_km": 636.3833132442796, "timestamp": "2025-12-23T20:42:36.729135+00:00", "meta": {"OBJECT_NAME": "HUANJING 1A (HJ-1A)", "OBJECT_ID": "2008-041A", "EPOCH": "2025-12-23T06:52:19.299072", "MEAN_MOTION": 14.83426962, "ECCENTRICITY": 0.00193784, "INCLINATION": 97.6543, "RA_OF_ASC_NODE": 345.1446, "ARG_OF_PERICENTER": 1.0541, "MEAN_ANOMALY": 359.0711, "EPHEMERIS_TYPE": 0, "CLASSIFICATION_TYPE": "U", "NORAD_CAT_ID": 33320, "ELEMENT_SET_NO": 999, "REV_AT_EPOCH": 93232, "BSTAR": 0.00022618692, "MEAN_MOTION_DOT": 1.812e-05, "MEAN_MOTION_DDOT": 0}, "tle": {"line1": "1 33320U 08041A   25357.28633448  .00001812  00000+0  22619-3 0  9998", "line2": "2 33320  97.6543 345.1446 0019378   1.0541 359.0711 14.83426962932323"}}, "geometry": {"type": "Point", "coordinates": [163.29475358638348, -17.311996028479967]}}, {"type": "Feature", "properties": {"norad_id": 33321, "name": "HUANJING 1B (HJ-1B)", "group": "resource", "lat": 34.97389966704891, "lon": -16.02306384076839, "alt_km": 591.6577100725444, "timestamp": "2025-12-23T20:42:36.729146+00:00", "meta": {"OBJECT_NAME": "HUANJING 1B (HJ-1B)", "OBJECT_ID": "2008-041B", "EPOCH": "2025-12-23T05:58:37.133760", "MEAN_MOTION": 14.82846017, "ECCENTRICITY": 0.00378657, "INCLINATION": 97.64, "RA_OF_ASC_NODE": 348.7781, "ARG_OF_PERICENTER": 42.4143, "MEAN_ANOMALY": 317.9987, "EPHEMERIS_TYPE": 0, "CLASSIFICATION_TYPE": "U", "NORAD_CAT_ID": 33321, "ELEMENT_SET_NO": 999, "REV_AT_EPOCH": 93233, "BSTAR": 0.00012646339, "MEAN_MOTION_DOT": 9.85e-06, "MEAN_MOTION_DDOT": 0}, "tle": {"line1": "1 33321U 08041B   25357.24904090  .00000985  00000+0  12646-3 0  9998", "line2": "2 33321  97.6400 348.7781 0037865  42.4143 317.9987 14.82846017932330"}}, "geometry": {"type": "Point", "coordinates": [-16.02306384076839, 34.97389966704891]}}, {"type": "Feature", "properties": {"norad_id": 33331, "name": "GEOEYE 1", "group": "resource", "lat": 17.87365780143914, "lon": 66.36261401569406, "alt_km": 679.9929314212404, "timestamp": "2025-12-23T20:42:36.729156+00:00", "meta": {"OBJECT_NAME": "GEOEYE 1", "OBJECT_ID": "2008-042A", "EPOCH": "2025-12-23T04:13:57.785664", "MEAN_MOTION": 14.64713746, "ECCENTRICITY": 0.00029135, "INCLINATION": 98.1239, "RA_OF_ASC_NODE": 68.3251, "ARG_OF_PERICENTER": 239.3644, "MEAN_ANOMALY": 120.7272, "EPHEMERIS_TYPE": 0, "CLASSIFICATION_TYPE": "U", "NORAD_CAT_ID": 33331, "ELEMENT_SET_NO": 999, "REV_AT_EPOCH": 92438, "BSTAR": 0.00011627381, "MEAN_MOTION_DOT": 5.71e-06, "MEAN_MOTION_DDOT": 0}, "tle": {"line1": "1 33331U 08042A   25357.17636326  .00000571  00000+0  11627-3 0  9995", "line2": "2 33331  98.1239  68.3251 0002913 239.3644 120.7272 14.64713746924388"}}, "geometry": {"type": "Point", "coordinates": [66.36261401569406, 17.87365780143914]}}, {"type": "Feature", "properties": {"norad_id": 33396, "name": "THEOS", "group": "resource", "lat": -68.8338877084899, "lon": -147.34032168229004, "alt_km": 833.089477084226, "timestamp": "2025-12-23T20:42:36.729167+00:00", "meta": {"OBJECT_NAME": "THEOS", "OBJECT_ID": "2008-049A", "EPOCH": "2025-12-23T07:41:49.764768", "MEAN_MOTION": 14.20098022, "ECCENTRICITY": 0.00012271, "INCLINATION": 98.5851, "RA_OF_ASC_NODE": 55.0978, "ARG_OF_PERICENTER": 93.2912, "MEAN_ANOMALY": 266.8405, "EPHEMERIS_TYPE": 0, "CLASSIFICATION_TYPE": "U", "NORAD_CAT_ID": 33396, "ELEMENT_SET_NO": 999, "REV_AT_EPOCH": 89300, "BSTAR": -1.406822e-06, "MEAN_MOTION_DOT": -4.6e-07, "MEAN_MOTION_DDOT": 0}, "tle": {"line1": "1 33396U 08049A   25357.32071487 -.00000046  00000+0 -14068-5 0  9994", "line2": "2 33396  98.5851  55.0978 0001227  93.2912 266.8405 14.20098022893003"}}, "geometry": {"type": "Point", "coordinates": [-147.34032168229004, -68.8338877084899]}}, {"type": "Feature", "properties": {"norad_id": 33412, "name": "COSMO-SKYMED 3", "group": "resource", "lat": 31.04680153712147, "lon": 33.20364111191185, "alt_km": 536.9771307670153, "timestamp": "2025-12-23T20:42:36.729178+00:00", "meta": {"OBJECT_NAME": "COSMO-SKYMED 3", "OBJECT_ID": "2008-054A", "EPOCH": "2025-12-23T05:41:47.418432", "MEAN_MOTION": 15.05441687, "ECCENTRICITY": 0.00170766, "INCLINATION": 97.8455, "RA_OF_ASC_NODE": 207.8065, "ARG_OF_PERICENTER": 137.312, "MEAN_ANOMALY": 222.9436, "EPHEMERIS_TYPE": 0, "CLASSIFICATION_TYPE": "U", "NORAD_CAT_ID": 33412, "ELEMENT_SET_NO": 999, "REV_AT_EPOCH": 93045, "BSTAR": 0.00023784714, "MEAN_MOTION_DOT": 3.36e-05, "MEAN_MOTION_DDOT": 0}, "tle": {"line1": "1 33412U 08054A   25357.23735438  .00003360  00000+0  23785-3 0  9996", "line2": "2 33412  97.8455 207.8065 0017076 137.3120 222.9436 15.05441687930459"}}, "geometry": {"type": "Point", "coordinates": [33.20364111191185, 31.04680153712147]}}, {"type": "Feature", "properties": {"norad_id": 33446, "name": "YAOGAN-4", "group": "resource", "lat": -57.27408379101903, "lon": -59.63584674171212, "alt_km": 619.1775471756273, "timestamp": "2025-12-23T20:42:36.729188+00:00", "meta": {"OBJECT_NAME": "YAOGAN-4", "OBJECT_ID": "2008-061A", "EPOCH": "2025-12-23T01:32:09.119616", "MEAN_MOTION": 14.8271129, "ECCENTRICITY": 0.00130344, "INCLINATION": 97.9196, "RA_OF_ASC_NODE": 287.0626, "ARG_OF_PERICENTER": 286.8037, "MEAN_ANOMALY": 73.1747, "EPHEMERIS_TYPE": 0, "CLASSIFICATION_TYPE": "U", "NORAD_CAT_ID": 33446, "ELEMENT_SET_NO": 999, "REV_AT_EPOCH": 91956, "BSTAR": 0.0001704414, "MEAN_MOTION_DOT": 1.323e-05, "MEAN_MOTION_DDOT": 0}, "tle": {"line1": "1 33446U 08061A   25357.06399444  .00001323  00000+0  17044-3 0  9993", "line2": "2 33446  97.9196 287.0626 0013034 286.8037  73.1747 14.82711290919563"}}, "geometry": {"type": "Point", "coordinates": [-59.63584674171212, -57.27408379101903]}}]}